[{"OBJECT_NAME":"STARLINK-6110","OBJECT_ID":"2023-083AH","EPOCH":"2026-03-09T22:00:01.999584","MEAN_MOTION":15.1071432,"ECCENTRICITY":0.00020054,"INCLINATION":43.0011,"RA_OF_ASC_NODE":67.6846,"ARG_OF_PERICENTER":266.7721,"MEAN_ANOMALY":68.029,"EPHEMERIS_TYPE":0,"CLASSIFICATION_TYPE":"U","NORAD_CAT_ID":56907,"ELEMENT_SET_NO":999,"REV_AT_EPOCH":567,"BSTAR":0.0045484576,"MEAN_MOTION_DOT":0.00077304,"MEAN_MOTION_DDOT":0},{"OBJECT_NAME":"CZ-6A DEB","OBJECT_ID":"2024-140YJ","EPOCH":"2026-03-09T12:57:52.080768","MEAN_MOTION":14.93904112,"ECCENTRICITY":0.01017322,"INCLINATION":88.9655,"RA_OF_ASC_NODE":277.0683,"ARG_OF_PERICENTER":120.9079,"MEAN_ANOMALY":240.2204,"EPHEMERIS_TYPE":0,"CLASSIFICATION_TYPE":"U","NORAD_CAT_ID":61417,"ELEMENT_SET_NO":999,"REV_AT_EPOCH":8080,"BSTAR":0.0018816098,"MEAN_MOTION_DOT":0.00022222,"MEAN_MOTION_DDOT":0}]
